satname,norad_id,inclination_deg,eccentricity,mean_motion_rev_per_day,perigee_km,apogee_km,l1,l2
STARLINK-1460,45676,53.1593,0.0001689,15.29865709,475.05568405639224,477.3710836160526,1 45676U 20035V   26076.82860936  .00061577  00000+0  20955-2 0  9999,2 45676  53.1593  27.1412 0001689 102.5152 257.6037 15.29865709319963
STARLINK-1392,45677,53.155,0.0001762,15.2935063,476.54430110317844,478.9603164955997,1 45677U 20035W   26076.82577526  .00005976  00000+0  21930-3 0  9996,2 45677  53.1550  27.0170 0001762  90.6944 269.4258 15.29350630320000
STARLINK-1394,45679,53.0499,0.0003684,15.5137054,410.2218323010957,415.2253383803745,1 45679U 20035Y   26076.48026154  .00081689  00000+0  13584-2 0  9996,2 45679  53.0499 359.1469 0003684 154.8811 205.2378 15.51370540320361
STARLINK-1402,45685,53.049,0.0001648,15.46235398,426.6289064510074,428.8721269765165,1 45685U 20035AE  26076.47916715  .00073418  00000+0  14637-2 0  9994,2 45685  53.0490 346.2641 0001648 211.3868 148.7040 15.46235398320550
STARLINK-1404,45686,53.1613,0.0001785,15.30829285,472.11379344893976,474.5597695889419,1 45686U 20035AF  26076.53265246  .00029176  00000+0  97421-3 0  9993,2 45686  53.1613  13.2582 0001785  95.0564 265.0641 15.30829285320171
STARLINK-1413,45689,53.162,0.0001417,15.30183912,474.2919789133284,476.23423250328506,1 45689U 20035AJ  26076.53996754  .00000378  00000+0  24900-4 0  9997,2 45689  53.1620  13.1141 0001417  87.6136 272.5027 15.30183912320098
STARLINK-1417,45693,53.0532,0.000174,15.13079565,525.6135404619345,528.0164637586686,1 45693U 20035AN  26076.52573452  .00025048  00000+0  14112-2 0  9990,2 45693  53.0532  18.7796 0001740 247.8185 112.2622 15.13079565320083
STARLINK-1420,45695,53.0538,0.0004771,15.55310566,398.0155570245297,404.4844481023747,1 45695U 20035AQ  26076.45732480  .00086245  00000+0  12423-2 0  9991,2 45695  53.0538 344.8937 0004771 143.0466 217.0873 15.55310566320567
STARLINK-1422,45696,53.1628,0.0001305,15.3020175,474.31548247656974,476.10420600291764,1 45696U 20035AR  26076.54731900  .00003293  00000+0  12327-3 0  9994,2 45696  53.1628  13.0828 0001305  94.4516 265.6634 15.30201750320176
STARLINK-1351,45697,53.0521,0.0004205,15.54062864,402.0258790390062,407.73039476914255,1 45697U 20035AS  26076.76217381  .00094925  00000+0  14289-2 0  9991,2 45697  53.0521 342.7021 0004205 164.5096 195.6043 15.54062864320622
STARLINK-1398,45699,53.0296,0.00059,16.03488307,260.847689381314,268.6863161045512,1 45699U 20035AU  26076.82749623  .00533748  14247-3  83183-3 0  9992,2 45699  53.0296 257.1630 0005900 273.2069  86.8287 16.03488307321822
STARLINK-1400,45700,53.0512,0.0007831,15.52066401,405.37733536284395,416.0100019560996,1 45700U 20035AV  26076.86997991  .00074792  00000+0  12138-2 0  9990,2 45700  53.0512 343.6295 0007831 128.3758 231.7955 15.52066401320613
STARLINK-1403,45701,53.1564,0.0001741,15.29367294,476.5089058290223,478.8961091455285,1 45701U 20035AW  26076.91670139 -.00023500  00000+0 -80427-3 0  9999,2 45701  53.1564 358.3504 0001741  83.0375  15.1476 15.29367294  5782
STARLINK-1407,45703,53.0326,0.0008443,15.61934075,376.36309181564775,387.7783785973179,1 45703U 20035AY  26076.91670139  .00115515  00000+0  12881-2 0  9995,2 45703  53.0326 275.6213 0008443 137.2556 349.6283 15.61934075  5926
STARLINK-1411,45706,53.0427,0.0004381,15.63788999,373.7645235075406,379.68313256506644,1 45706U 20035BB  26076.87813056  .00072531  00000+0  75923-3 0  9997,2 45706  53.0427 301.3665 0004381 168.1082 192.0036 15.63788999321205
STARLINK-1423,45710,53.0505,0.0007682,15.54555837,398.23445322483803,408.6536743712577,1 45710U 20035BF  26076.76093008  .00088699  00000+0  13119-2 0  9997,2 45710  53.0505 343.0676 0007682 143.3202 216.8335 15.54555837320601
STARLINK-1433,45711,53.0504,0.0007494,15.56560587,392.54223384161196,402.6977384124184,1 45711U 20035BG  26076.83965820  .00084748  00000+0  11652-2 0  9997,2 45711  53.0504 341.6129 0007494 135.6124 224.5489 15.56560587320635
STARLINK-1434,45712,53.0537,0.0005224,15.27577347,479.4727523210204,486.6413278541031,1 45712U 20035BH  26076.87981285  .00030479  00000+0  11232-2 0  9991,2 45712  53.0537 342.0727 0005224 123.1031 237.0470 15.27577347320649
STARLINK-1465,45731,53.0508,0.0004492,15.51484881,409.3396289525399,415.44023834973177,1 45731U 20038B   26076.91670139  .00011715  00000+0  20231-3 0  9995,2 45731  53.0508 183.6434 0004492 320.7134 163.9998 15.51484881  5950
STARLINK-1471,45735,53.0453,0.000106,15.49326754,417.97389363062666,419.4148218784703,1 45735U 20038F   26076.77525777  .00018315  00000+0  33635-3 0  9995,2 45735  53.0453 103.2730 0001060 335.9542  24.1416 15.49326754318781
STARLINK-1480,45741,53.052,0.0005493,15.48207115,418.2355712482522,425.70616975478515,1 45741U 20038M   26076.54319924  .00053418  00000+0  99918-3 0  9991,2 45741  53.0520 179.6866 0005493 201.9833 158.0940 15.48207115317695
STARLINK-1500,45744,53.0371,0.0002101,15.35259229,458.71389745189845,461.5873459105296,1 45744U 20038Q   26076.62077858  .00018735  00000+0  54906-3 0  9991,2 45744  53.0371 155.5347 0002101 311.8080  48.2742 15.35259229318035
STARLINK-1504,45746,53.0218,5.42e-05,15.53706082,405.5488036605857,406.28419505991496,1 45746U 20038S   26076.79292813  .00023493  00000+0  36706-3 0  9996,2 45746  53.0218 103.0756 0000542  23.6389 336.4645 15.53706082318775
STARLINK-1506,45747,53.0762,0.0002361,15.26416057,484.9158251808476,488.1573240427788,1 45747U 20038T   26076.58332400  .00006986  00000+0  27761-3 0  9990,2 45747  53.0762 165.8456 0002361 279.2486  80.8245 15.26416057317899
STARLINK-1464,45751,53.0517,0.0002957,15.44881731,429.71192798893844,433.7392807331562,1 45751U 20038X   26076.52621844  .00031631  00000+0  66909-3 0  9994,2 45751  53.0517 167.3301 0002957 314.0678  46.0084 15.44881731317867
STARLINK-1477,45754,53.05,0.0001874,15.14935767,519.8806420175351,522.4665036202277,1 45754U 20038AA  26076.55141709  .00027121  00000+0  14488-2 0  9990,2 45754  53.0500 177.2147 0001874  25.5519 334.5566 15.14935767317726
STARLINK-1478,45755,53.0515,0.0003554,15.56660998,394.92060649531595,399.7366074487509,1 45755U 20038AB  26076.40570334  .00077512  00000+0  10642-2 0  9992,2 45755  53.0515 160.5355 0003554 304.1332  55.9342 15.56660998317931
STARLINK-1484,45756,52.9939,0.0003772,16.17445989,224.00411890820578,228.98665358038852,1 45756U 20038AC  26076.90251943  .01212408  11074-2  75843-3 0  9997,2 45756  52.9939  13.4617 0003772 167.6317 192.4812 16.17445989320026
STARLINK-1493,45759,53.0524,0.0003394,15.51723598,409.38901134801836,413.9979482777162,1 45759U 20038AF  26076.76227225  .00063865  00000+0  10527-2 0  9991,2 45759  53.0524 165.7081 0003394  32.2839 327.8377 15.51723598317896
STARLINK-1494,45760,53.0473,0.0006635,15.75389846,339.0622373194783,347.98187888958273,1 45760U 20038AG  26076.81192432  .00078587  00000+0  50809-3 0  9995,2 45760  53.0473 111.1869 0006635  30.5392 329.6012 15.75389846318679
STARLINK-1502,45764,53.0517,0.0004533,15.4850056,418.02965148107705,424.1938503986794,1 45764U 20038AL  26076.62850270  .00068306  00000+0  12602-2 0  9995,2 45764  53.0517 168.0734 0004533  20.6284 339.4906 15.48500560317868
STARLINK-1470,45772,53.0453,0.0002319,15.28744333,477.97457609365665,481.1551782242823,1 45772U 20038AU  26076.58650361  .00035433  00000+0  12576-2 0  9993,2 45772  53.0453 137.6426 0002319  27.3909 332.7212 15.28744333318283
STARLINK-1482,45773,53.1604,9.76e-05,15.30592229,473.37542154102084,474.71296731017264,1 45773U 20038AV  26076.38751024  .00021466  00000+0  72596-3 0  9990,2 45773  53.1604 155.2546 0000976  41.2596 318.8479 15.30592229318026
STARLINK-1496,45780,53.0516,0.000229,15.49616238,416.29157293124445,419.40413399413046,1 45780U 20038BC  26076.44912434  .00066952  00000+0  11885-2 0  9991,2 45780  53.0516 140.6497 0002290 261.8627  98.2121 15.49616238318215
STARLINK-1513,45786,53.1631,0.0001675,15.3018509,474.11164442471636,476.4075322818153,1 45786U 20038BJ  26076.59358866 -.00000990  00000+0 -21308-4 0  9991,2 45786  53.1631 154.4381 0001675  81.1036 279.0155 15.30185090318053
STARLINK-1522,46027,53.0635,0.000208,15.09427678,536.5091296409155,539.3862208658211,1 46027U 20055A   26076.76067196  .00021962  00000+0  13714-2 0  9991,2 46027  53.0635  90.0954 0002080  74.6235 285.4985 15.09427678310102
STARLINK-1523,46028,53.1469,0.0001788,15.28204259,479.9540303949898,482.406922324536,1 46028U 20055B   26076.91670139  .00119456  00000+0  42324-2 0  9991,2 46028  53.1469  88.4220 0001788 100.7951 124.7987 15.28204259  5732
STARLINK-1526,46029,53.1469,9.31e-05,15.28112226,480.8172543999244,482.0945105946448,1 46029U 20055C   26076.91670139  .00123245  00000+0  43763-2 0  9991,2 46029  53.1469  88.3851 0000931 107.0356 178.7095 15.28112226  5786
STARLINK-1555,46032,53.1499,0.0001156,15.28799941,478.6058520404358,480.1913142672611,1 46032U 20055F   26076.91670139  .00128360  00000+0  44596-2 0  9993,2 46032  53.1499  88.4648 0001156 106.5363 215.4562 15.28799941  5738
STARLINK-1556,46033,53.1531,0.0001797,15.2923899,476.85391134982547,479.31803788690195,1 46033U 20055G   26076.91670139  .00080979  00000+0  27981-2 0  9996,2 46033  53.1531  88.3482 0001797  75.5630  49.5884 15.29238990  5831
STARLINK-1557,46034,53.1601,0.0001746,15.29319421,476.6485265459414,479.04263566326335,1 46034U 20055H   26076.91670139  .00046789  00000+0  16254-2 0  9999,2 46034  53.1601  88.2512 0001746  80.6403  78.7671 15.29319421  5839
STARLINK-1558,46035,53.1546,8.53e-05,15.29305714,477.30172851661246,478.47136613378643,1 46035U 20055J   26076.91670139  .00071069  00000+0  24555-2 0  9992,2 46035  53.1546  88.4332 0000853  82.7292 295.7345 15.29305714  5735
STARLINK-1560,46036,53.1551,0.0001844,15.2935205,476.48383980735707,479.0122902193343,1 46036U 20055K   26076.91670139  .00050704  00000+0  17576-2 0  9991,2 46036  53.1551  88.2894 0001844  81.1515  95.9969 15.29352050  5787
